{
    "links": {
        "self": "http://www.neowsapp.com/rest/v1/neo/3092346?api_key=iIulBulltgU6a56xZRHN4H3l9WmuAYTsLGpBGhQ2"
    },
    "id": "3092346",
    "neo_reference_id": "3092346",
    "name": "(2001 TB)",
    "designation": "2001 TB",
    "nasa_jpl_url": "http://ssd.jpl.nasa.gov/sbdb.cgi?sstr=3092346",
    "absolute_magnitude_h": 24.4,
    "estimated_diameter": {
        "kilometers": {
            "estimated_diameter_min": 0.0350392641,
            "estimated_diameter_max": 0.0783501764
        },
        "meters": {
            "estimated_diameter_min": 35.0392641108,
            "estimated_diameter_max": 78.3501764334
        },
        "miles": {
            "estimated_diameter_min": 0.0217723826,
            "estimated_diameter_max": 0.0486845275
        },
        "feet": {
            "estimated_diameter_min": 114.9582192654,
            "estimated_diameter_max": 257.0543928497
        }
    },
    "is_potentially_hazardous_asteroid": false,
    "close_approach_data": [
        {
            "close_approach_date": "2001-10-08",
            "close_approach_date_full": "2001-Oct-08 14:49",
            "epoch_date_close_approach": 1002552540000,
            "relative_velocity": {
                "kilometers_per_second": "11.4868731571",
                "kilometers_per_hour": "41352.7433654142",
                "miles_per_hour": "25694.9865650264"
            },
            "miss_distance": {
                "astronomical": "0.008708716",
                "lunar": "3.387690524",
                "kilometers": "1302805.36403492",
                "miles": "809525.715005096"
            },
            "orbiting_body": "Moon"
        },
        {
            "close_approach_date": "2001-10-08",
            "close_approach_date_full": "2001-Oct-08 15:35",
            "epoch_date_close_approach": 1002555300000,
            "relative_velocity": {
                "kilometers_per_second": "12.473290437",
                "kilometers_per_hour": "44903.8455732702",
                "miles_per_hour": "27901.5033785689"
            },
            "miss_distance": {
                "astronomical": "0.0064311201",
                "lunar": "2.5017057189",
                "kilometers": "962081.868674187",
                "miles": "597809.9523783006"
            },
            "orbiting_body": "Earth"
        },
        {
            "close_approach_date": "2006-09-21",
            "close_approach_date_full": "2006-Sep-21 14:40",
            "epoch_date_close_approach": 1158849600000,
            "relative_velocity": {
                "kilometers_per_second": "14.5771848817",
                "kilometers_per_hour": "52477.8655740473",
                "miles_per_hour": "32607.7048618295"
            },
            "miss_distance": {
                "astronomical": "0.0371541947",
                "lunar": "14.4529817383",
                "kilometers": "5558188.388685289",
                "miles": "3453698.1146194282"
            },
            "orbiting_body": "Mars"
        },
        {
            "close_approach_date": "2028-09-13",
            "close_approach_date_full": "2028-Sep-13 04:34",
            "epoch_date_close_approach": 1852432440000,
            "relative_velocity": {
                "kilometers_per_second": "24.1377372544",
                "kilometers_per_hour": "86895.854116016",
                "miles_per_hour": "53993.7044644767"
            },
            "miss_distance": {
                "astronomical": "0.3911427296",
                "lunar": "152.1545218144",
                "kilometers": "58514119.214145952",
                "miles": "36358987.6910080576"
            },
            "orbiting_body": "Earth"
        },
        {
            "close_approach_date": "2040-02-29",
            "close_approach_date_full": "2040-Feb-29 10:47",
            "epoch_date_close_approach": 2214125220000,
            "relative_velocity": {
                "kilometers_per_second": "22.5075704835",
                "kilometers_per_hour": "81027.2537406223",
                "miles_per_hour": "50347.184414555"
            },
            "miss_distance": {
                "astronomical": "0.3371914137",
                "lunar": "131.1674599293",
                "kilometers": "50443117.271808819",
                "miles": "31343899.6367629422"
            },
            "orbiting_body": "Earth"
        }
    ],
    "orbital_data": {
        "orbit_id": "8",
        "orbit_determination_date": "2017-04-06 09:16:02",
        "first_observation_date": "2001-10-05",
        "last_observation_date": "2001-10-08",
        "data_arc_in_days": 3,
        "observations_used": 35,
        "orbit_uncertainty": "8",
        "minimum_orbit_intersection": ".0029364",
        "jupiter_tisserand_invariant": "4.023",
        "epoch_osculation": "2452188.5",
        "eccentricity": ".5232022371658681",
        "semi_major_axis": "1.706252380677213",
        "inclination": "4.032112471235475",
        "ascending_node_longitude": "192.4858786104862",
        "orbital_period": "814.0729652372546",
        "perihelion_distance": ".8135373179373067",
        "perihelion_argument": "245.1052136822468",
        "aphelion_distance": "2.598967443417119",
        "perihelion_time": "2452234.686341843232",
        "mean_anomaly": "339.5754388444558",
        "mean_motion": ".4422208025236179",
        "equinox": "J2000",
        "orbit_class": {
            "orbit_class_type": "APO",
            "orbit_class_description": "Near-Earth asteroid orbits which cross the Earth’s orbit similar to that of 1862 Apollo",
            "orbit_class_range": "a (semi-major axis) > 1.0 AU; q (perihelion) < 1.017 AU"
        }
    },
    "is_sentry_object": false
}